OBJECT_NAME,OBJECT_ID,EPOCH,MEAN_MOTION,ECCENTRICITY,INCLINATION,RA_OF_ASC_NODE,ARG_OF_PERICENTER,MEAN_ANOMALY,EPHEMERIS_TYPE,CLASSIFICATION_TYPE,NORAD_CAT_ID,ELEMENT_SET_NO,REV_AT_EPOCH,BSTAR,MEAN_MOTION_DOT,MEAN_MOTION_DDOT
CUTE-1 (CO-55),2003-031E,2026-07-12T06:08:45.429504,14.24350376,.00107688,98.6742,201.5000,110.2037,250.0301,0,U,27844,999,19524,.87285046E-4,.158E-5,0
CUBESAT XI-IV (CO-57),2003-031J,2026-07-11T13:18:12.441888,14.23633286,.0010408,98.6772,200.4999,128.9651,231.2457,0,U,27848,999,19484,.76240362E-4,.13E-5,0
CUBESAT XI-V,2005-043F,2026-07-11T09:17:30.194592,14.72696464,.00151315,98.3011,348.5214,126.3821,233.8784,0,U,28895,999,10531,.13420163E-3,.804E-5,0
CUTE-1.7+APD II (CO-65),2008-021C,2026-07-12T04:07:50.710944,15.09682301,.00072854,97.8286,175.1161,311.6931,48.3674,0,U,32785,999,98896,.19865896E-3,.3133E-4,0
CANX-2,2008-021H,2026-07-11T21:02:30.166656,15.05793751,.00090761,97.8654,173.1388,330.3855,29.6856,0,U,32790,999,98852,.15616681E-3,.2199E-4,0
SEEDS II (CO-66),2008-021J,2026-07-11T13:05:02.149728,15.33584480,.00026852,97.7522,191.6211,165.1600,194.9721,0,U,32791,999,99102,.34002086E-3,.1096E-3,0
SWISSCUBE,2009-051B,2026-07-12T05:01:01.203744,14.62527427,.00077152,98.4012,101.5313,127.0520,233.1388,0,U,35932,999,89281,.10865015E-3,.502E-5,0
BEESAT-1,2009-051C,2026-07-11T16:24:52.965504,14.61758535,.00059254,98.3940,100.5811,139.0777,221.0870,0,U,35933,999,89276,.93456424E-4,.417E-5,0
ITUPSAT1,2009-051E,2026-07-11T23:17:18.975264,14.60475983,.0007861,98.4023,100.0372,152.4089,207.7529,0,U,35935,999,89235,.90105677E-4,.388E-5,0
TISAT 1,2010-035E,2026-07-11T19:17:08.168928,15.32645486,.00042402,98.0706,141.5552,126.9872,233.1757,0,U,36799,999,87147,.38373371E-3,.12017E-3,0
STRAND-1,2013-009E,2026-07-11T23:31:54.290208,14.37177734,.00092395,98.3932,12.6059,149.9394,210.2325,0,U,39090,999,70062,.66459895E-4,.155E-5,0
BRITE-AUSTRIA,2013-009F,2026-07-11T17:24:44.408736,14.36551598,.00105646,98.4006,11.5552,160.5615,199.5976,0,U,39091,999,70057,.45384828E-4,.91E-6,0
NEE-01 PEGASO,2013-018B,2026-07-09T15:21:07.078464,14.93776228,.00138751,98.1250,335.5366,90.6498,269.6310,0,U,39151,999,71405,.1219934E-3,.1233E-4,0
POPACS 2,2013-055E,2026-07-12T04:47:55.187520,14.91934936,.04151763,80.9921,115.5530,113.4876,251.0542,0,U,39269,999,66694,.22032605E-3,.13503E-3,-.908857E-6
POPACS 3,2013-055F,2026-07-12T07:59:04.751232,14.56611226,.05491478,80.9985,201.9113,353.4067,6.0092,0,U,39270,999,64221,.20859034E-3,.8797E-4,0
ZACUBE-1 (TSHEPISOSAT),2013-066B,2026-07-11T22:27:03.644640,15.01320163,.0043834,97.8011,155.3951,165.6614,194.5865,0,U,39417,999,68444,.11431E-3,.1437E-4,0
WNISAT-1,2013-066H,2026-07-11T15:24:05.882400,14.58114987,.01636639,97.7230,340.0659,154.4487,206.4918,0,U,39423,999,67029,.13426978E-3,.695E-5,0
TRITON-1,2013-066M,2026-07-12T05:08:21.176736,14.81788777,.00903368,97.8226,102.4496,151.7393,208.8764,0,U,39427,999,67779,.11039071E-3,.878E-5,0
GOMX-1,2013-066Q,2026-07-12T07:28:33.064320,14.69538478,.01285439,97.6477,32.1889,357.4914,2.5632,0,U,39430,999,67360,.13862496E-3,.881E-5,0
CUBEBUG-2 (LO-74),2013-066AA,2026-07-12T07:33:50.653440,14.93955186,.00559859,97.8909,142.4045,305.1332,54.4648,0,U,39440,999,68074,.17183435E-3,.1823E-4,0
NEE-02 KRYSAOR,2013-066AB,2026-07-11T18:36:46.089216,14.86730516,.0065707,97.8892,131.8170,350.5702,9.4275,0,U,39441,999,67985,.17017859E-3,.1515E-4,0
FUNCUBE-1 (AO-73),2013-066AE,2026-07-11T21:54:09.783072,15.09793381,.0037972,97.8287,164.8814,118.2418,242.2652,0,U,39444,999,68339,.24262E-3,.3917E-4,0
UWE-3,2013-066AG,2026-07-11T19:28:32.557152,14.97185641,.00475172,97.8698,149.0559,236.3304,123.3381,0,U,39446,999,68126,.15712987E-3,.1794E-4,0
BRITE-CA1 (TORONTO),2014-033L,2026-07-11T20:05:46.288320,14.72718584,.00781937,97.9767,321.3152,197.0405,162.8175,0,U,40020,999,64584,.93137253E-4,.569E-5,0
DUCHIFAT-1,2014-033M,2026-07-11T15:59:20.150016,15.70315468,.00019202,98.0458,255.3713,269.1618,90.9422,0,U,40021,999,65958,.7760435E-3,.95138E-3,0
NANOSATC-BR1,2014-033Q,2026-07-11T15:15:34.349472,15.32251608,.00053242,98.0715,227.2031,105.3164,254.8665,0,U,40024,999,65772,.33685859E-3,.10408E-3,0
QB50P1,2014-033R,2026-07-11T23:50:51.841248,15.18635038,.00101635,98.0966,205.8851,134.1703,226.0367,0,U,40025,999,65679,.25073799E-3,.5121E-4,0
QB50P2,2014-033Y,2026-07-11T23:52:41.738592,15.15481398,.00093508,98.0759,191.4259,92.6362,267.5939,0,U,40032,999,65642,.23118014E-3,.4304E-4,0
PERSEUS-M2,2014-033AD,2026-07-12T06:53:02.880096,14.95586045,.00106601,97.9967,144.3403,209.0083,151.0546,0,U,40037,999,65453,.1655792E-3,.1778E-4,0
PERSEUS-M1,2014-033AF,2026-07-12T06:11:13.195968,14.95708388,.00107511,97.9651,137.8034,206.7802,153.2864,0,U,40039,999,65438,.12173872E-3,.1296E-4,0
